OSCAR 7 (AO-7)          
1 07530U 74089B   26204.28001248 -.00000040  00000+0  41374-4 0  9999
2 07530 101.9909 217.9030 0012609  63.4131 306.8461 12.53698643365047
PHASE 3B (AO-10)        
1 14129U 83058B   26202.35803166  .00000044  00000+0  00000+0 0  9991
2 14129  25.9422 213.9384 5999428 125.0554 306.6315  2.05869545296196
UOSAT 2 (UO-11)         
1 14781U 84021B   26203.25715222  .00001166  00000+0  12393-3 0  9999
2 14781  97.8082 168.4468 0009118  71.8134 288.4076 14.90861576262357
LUSAT (LO-19)           
1 20442U 90005G   26204.32203216  .00000084  00000+0  46530-4 0  9992
2 20442  98.8846 227.1220 0012688  99.6181 260.6437 14.34132410907571
EYESAT A (AO-27)        
1 22825U 93061C   26204.15037507  .00000058  00000+0  39247-4 0  9991
2 22825  98.6861 271.5473 0008293   3.0265 357.0967 14.30950552712142
ITAMSAT (IO-26)         
1 22826U 93061D   26204.11905141  .00000047  00000+0  34621-4 0  9995
2 22826  98.6808 271.4372 0008465 345.7745  14.3198 14.31378310712451
RADIO ROSTO (RS15)      
1 23439U 94085A   26204.12374891 -.00000032  00000+0  29316-3 0  9995
2 23439  64.8139 245.0977 0157220 357.2514   2.7532 11.27583662299956
JAS-2 (FO-29)           
1 24278U 96046B   26204.16841843 -.00000042  00000+0 -59925-5 0  9999
2 24278  98.5215  48.1081 0349969   3.2680 357.0634 13.53275828478030
TECHSAT 1B (GO-32)      
1 25397U 98043D   26204.23945123  .00000045  00000+0  39427-4 0  9990
2 25397  99.0092 197.9112 0002332 102.2054 257.9385 14.24434488456467
ISS (ZARYA)             
1 25544U 98067A   26204.18538858  .00009623  00000+0  18183-3 0  9993
2 25544  51.6313 121.9488 0006905 328.2241  31.8329 15.49110422577336
PCSAT (NO-44)           
1 26931U 01043C   26204.26923272  .00000123  00000+0  76733-4 0  9991
2 26931  67.0504 150.9466 0005844 267.3031  92.7402 14.31967449295614
SAUDISAT 1C (SO-50)     
1 27607U 02058C   26204.09590113  .00000878  00000+0  12088-3 0  9993
2 27607  64.5523  17.8775 0074285 255.8289 103.4556 14.83110516269785
CUTE-1 (CO-55)          
1 27844U 03031E   26204.00389230  .00000238  00000+0  12202-3 0  9993
2 27844  98.6747 212.1136 0010851  82.6312 277.6100 14.24355144196777
CUBESAT XI-IV (CO-57)   
1 27848U 03031J   26204.01036090  .00000205  00000+0  10894-3 0  9990
2 27848  98.6778 211.8037 0010712  99.0689 261.1702 14.23637690196477
MOZHAETS 4 (RS22)       
1 27939U 03042A   26204.28095087  .00000392  00000+0  68593-4 0  9990
2 27939  98.3487  29.6623 0011838 148.2656 328.9464 14.73522377220867
CUBESAT XI-V            
1 28895U 05043F   26202.37477685  .00000932  00000+0  15414-3 0  9994
2 28895  98.3024 358.7230 0015344  97.2573 263.0378 14.72712744106788
CUTE-1.7+APD II (CO-65) 
1 32785U 08021C   26204.10818674  .00005733  00000+0  35922-3 0  9996
2 32785  97.8296 186.2868 0006968 265.7589  94.2843 15.09750992990610
SEEDS II (CO-66)        
1 32791U 08021J   26203.44081651  .00019519  00000+0  59788-3 0  9999
2 32791  97.7536 203.0544 0003832 141.9870 218.1643 15.33845449992691
YUBILEINY (RS30)        
1 32953U 08025A   26204.31360200  .00000103  00000+0  67003-3 0  9998
2 32953  82.5068 332.9679 0018829 230.3852 129.5566 12.43181419824184
KKS-1 (KISEKI)          
1 33499U 09002H   26204.21506685  .00001077  00000+0  13865-3 0  9996
2 33499  98.1169 127.2277 0008072 162.9724 197.1761 14.83203408941537
SWISSCUBE               
1 35932U 09051B   26204.15543684  .00000831  00000+0  17352-3 0  9999
2 35932  98.3998 112.6657 0008109  98.0034 262.2087 14.62541744894411
BEESAT-1                
1 35933U 09051C   26203.84145627  .00000667  00000+0  14346-3 0  9997
2 35933  98.3927 111.9069 0006451 110.1032 250.0863 14.61770632894398
ITUPSAT1                
1 35935U 09051E   26203.72659903  .00000550  00000+0  12334-3 0  9999
2 35935  98.4011 110.9439 0008488 122.2889 237.9135 14.60486457893923
XIWANG-1 (HOPE-1)       
1 36122U 09072B   26204.26745959 -.00000315  00000+0 -70884-3 0  9993
2 36122 100.4040 157.5263 0007771 146.8491 213.3111 13.16439359797750
O/OREOS (USA 219)       
1 37224U 10062C   26203.42053629  .00001606  00000+0  15681-3 0  9997
2 37224  71.9704   0.5182 0014481 351.1937   8.8977 14.93871007121903
JUGNU                   
1 37839U 11058B   26204.02255512  .00000401  00000+0  70106-4 0  9993
2 37839  19.9608  90.7073 0018653 112.3991  15.7019 14.13785262764100
SRMSAT                  
1 37841U 11058D   26204.33651532  .00000363  00000+0  53261-4 0  9992
2 37841  19.9701 200.6646 0011560 241.2167 146.8753 14.11582322762932
STRAND-1                
1 39090U 13009E   26204.05022801  .00000241  00000+0  95167-4 0  9994
2 39090  98.3941  23.4053 0009729 120.1275 240.0877 14.37182344702216
ZACUBE-1 (TSHEPISOSAT)  
1 39417U 13066B   26201.86646474  .00001847  00000+0  14537-3 0  9998
2 39417  97.7999 164.3670 0044079 137.0238 223.4444 15.01347026685787
GOMX-1                  
1 39430U 13066Q   26204.27375828  .00000867  00000+0  13686-3 0  9998
2 39430  97.6471  42.4595 0127558 322.1717  37.0576 14.69554635675212
